[{"OBJECT_NAME":"STARLINK-35311","OBJECT_ID":"2025-232AD","EPOCH":"2026-03-09T19:37:39.892512","MEAN_MOTION":15.30200109,"ECCENTRICITY":0.00017902,"INCLINATION":53.1599,"RA_OF_ASC_NODE":103.4047,"ARG_OF_PERICENTER":89.3413,"MEAN_ANOMALY":270.7793,"EPHEMERIS_TYPE":0,"CLASSIFICATION_TYPE":"U","NORAD_CAT_ID":66032,"ELEMENT_SET_NO":999,"REV_AT_EPOCH":2345,"BSTAR":0.00060910164,"MEAN_MOTION_DOT":0.00017724,"MEAN_MOTION_DDOT":0},{"OBJECT_NAME":"OBJECT L","OBJECT_ID":"2024-024L","EPOCH":"2026-03-09T22:36:05.522976","MEAN_MOTION":15.29373491,"ECCENTRICITY":0.00073185,"INCLINATION":97.3169,"RA_OF_ASC_NODE":137.7038,"ARG_OF_PERICENTER":167.6369,"MEAN_ANOMALY":192.5052,"EPHEMERIS_TYPE":0,"CLASSIFICATION_TYPE":"U","NORAD_CAT_ID":58927,"ELEMENT_SET_NO":999,"REV_AT_EPOCH":9318,"BSTAR":0.00043092344,"MEAN_MOTION_DOT":0.00012217,"MEAN_MOTION_DDOT":0}]
